{
  "type": "FeatureCollection",
  "features": [
    {
      "type": "Feature",
      "properties": {
        "norad_id": 66833,
        "name": "STARLINK-35858",
        "group": "last-30-days",
        "lat": -23.200099780180096,
        "lon": 18.714694722405195,
        "alt_km": 366.48326693270155,
        "timestamp": "2025-12-15T22:44:27.661762+00:00",
        "meta_object_name": "STARLINK-35858",
        "meta_object_id": "2025-280N",
        "meta_epoch": "2025-12-15T06:00:04.999968",
        "meta_mean_motion": 15.7182989,
        "meta_eccentricity": 0.00032738,
        "meta_inclination": 69.9969,
        "meta_ra_of_asc_node": 191.6928,
        "meta_arg_of_pericenter": 266.4587,
        "meta_mean_anomaly": 316.6185,
        "meta_ephemeris_type": 0,
        "meta_classification_type": "U",
        "meta_norad_cat_id": 66833,
        "meta_element_set_no": 999,
        "meta_rev_at_epoch": 330,
        "meta_bstar": -0.018107553,
        "meta_mean_motion_dot": -0.02073227,
        "meta_mean_motion_ddot": 0,
        "tle_line1": "1 66833U 25280N   25349.25005787 -.02073227  00000+0 -18108-1 0  9993",
        "tle_line2": "2 66833  69.9969 191.6928 0003273 266.4587 316.6185 15.71829890  3301"
      },
      "geometry": {
        "type": "Point",
        "coordinates": [
          18.714694722405195,
          -23.200099780180096
        ]
      }
    },
    {
      "type": "Feature",
      "properties": {
        "norad_id": 66834,
        "name": "STARLINK-35840",
        "group": "last-30-days",
        "lat": -24.98153719925134,
        "lon": 19.50127940874,
        "alt_km": 366.4691468671426,
        "timestamp": "2025-12-15T22:44:27.661774+00:00",
        "meta_object_name": "STARLINK-35840",
        "meta_object_id": "2025-280P",
        "meta_epoch": "2025-12-15T06:00:04.999968",
        "meta_mean_motion": 15.71827857,
        "meta_eccentricity": 0.00032253,
        "meta_inclination": 69.9964,
        "meta_ra_of_asc_node": 191.6898,
        "meta_arg_of_pericenter": 263.5742,
        "meta_mean_anomaly": 321.4181,
        "meta_ephemeris_type": 0,
        "meta_classification_type": "U",
        "meta_norad_cat_id": 66834,
        "meta_element_set_no": 999,
        "meta_rev_at_epoch": 330,
        "meta_bstar": -0.01805684,
        "meta_mean_motion_dot": -0.02067918,
        "meta_mean_motion_ddot": 0,
        "tle_line1": "1 66834U 25280P   25349.25005787 -.02067918  00000+0 -18057-1 0  9997",
        "tle_line2": "2 66834  69.9964 191.6898 0003225 263.5742 321.4181 15.71827857  3302"
      },
      "geometry": {
        "type": "Point",
        "coordinates": [
          19.50127940874,
          -24.98153719925134
        ]
      }
    },
    {
      "type": "Feature",
      "properties": {
        "norad_id": 66835,
        "name": "STARLINK-35890",
        "group": "last-30-days",
        "lat": -26.752853168385133,
        "lon": 20.308798564257874,
        "alt_km": 366.6400433959561,
        "timestamp": "2025-12-15T22:44:27.661786+00:00",
        "meta_object_name": "STARLINK-35890",
        "meta_object_id": "2025-280Q",
        "meta_epoch": "2025-12-15T06:00:04.999968",
        "meta_mean_motion": 15.71823114,
        "meta_eccentricity": 0.00031017,
        "meta_inclination": 69.9963,
        "meta_ra_of_asc_node": 191.6874,
        "meta_arg_of_pericenter": 264.976,
        "meta_mean_anomaly": 321.9359,
        "meta_ephemeris_type": 0,
        "meta_classification_type": "U",
        "meta_norad_cat_id": 66835,
        "meta_element_set_no": 999,
        "meta_rev_at_epoch": 330,
        "meta_bstar": -0.018022589,
        "meta_mean_motion_dot": -0.02063973,
        "meta_mean_motion_ddot": 0,
        "tle_line1": "1 66835U 25280Q   25349.25005787 -.02063973  00000+0 -18023-1 0  9998",
        "tle_line2": "2 66835  69.9963 191.6874 0003101 264.9760 321.9359 15.71823114  3308"
      },
      "geometry": {
        "type": "Point",
        "coordinates": [
          20.308798564257874,
          -26.752853168385133
        ]
      }
    },
    {
      "type": "Feature",
      "properties": {
        "norad_id": 66836,
        "name": "STARLINK-35838",
        "group": "last-30-days",
        "lat": -28.507101341724812,
        "lon": 21.135650198511595,
        "alt_km": 366.6772611443257,
        "timestamp": "2025-12-15T22:44:27.661800+00:00",
        "meta_object_name": "STARLINK-35838",
        "meta_object_id": "2025-280R",
        "meta_epoch": "2025-12-15T06:00:04.999968",
        "meta_mean_motion": 15.71839055,
        "meta_eccentricity": 0.00036797,
        "meta_inclination": 69.9963,
        "meta_ra_of_asc_node": 191.6847,
        "meta_arg_of_pericenter": 269.87,
        "meta_mean_anomaly": 318.9463,
        "meta_ephemeris_type": 0,
        "meta_classification_type": "U",
        "meta_norad_cat_id": 66836,
        "meta_element_set_no": 999,
        "meta_rev_at_epoch": 330,
        "meta_bstar": -0.018168741,
        "meta_mean_motion_dot": -0.02080546,
        "meta_mean_motion_ddot": 0,
        "tle_line1": "1 66836U 25280R   25349.25005787 -.02080546  00000+0 -18169-1 0  9995",
        "tle_line2": "2 66836  69.9963 191.6847 0003679 269.8700 318.9463 15.71839055  3300"
      },
      "geometry": {
        "type": "Point",
        "coordinates": [
          21.135650198511595,
          -28.507101341724812
        ]
      }
    },
    {
      "type": "Feature",
      "properties": {
        "norad_id": 66837,
        "name": "STARLINK-35729",
        "group": "last-30-days",
        "lat": -30.272511399806334,
        "lon": 21.999252391034105,
        "alt_km": 366.84770116309573,
        "timestamp": "2025-12-15T22:44:27.661810+00:00",
        "meta_object_name": "STARLINK-35729",
        "meta_object_id": "2025-280S",
        "meta_epoch": "2025-12-15T06:00:04.999968",
        "meta_mean_motion": 15.71828932,
        "meta_eccentricity": 0.00033791,
        "meta_inclination": 69.9959,
        "meta_ra_of_asc_node": 191.6823,
        "meta_arg_of_pericenter": 269.8792,
        "meta_mean_anomaly": 320.8661,
        "meta_ephemeris_type": 0,
        "meta_classification_type": "U",
        "meta_norad_cat_id": 66837,
        "meta_element_set_no": 999,
        "meta_rev_at_epoch": 330,
        "meta_bstar": -0.018108633,
        "meta_mean_motion_dot": -0.02073379,
        "meta_mean_motion_ddot": 0,
        "tle_line1": "1 66837U 25280S   25349.25005787 -.02073379  00000+0 -18109-1 0  9996",
        "tle_line2": "2 66837  69.9959 191.6823 0003379 269.8792 320.8661 15.71828932  3302"
      },
      "geometry": {
        "type": "Point",
        "coordinates": [
          21.999252391034105,
          -30.272511399806334
        ]
      }
    },
    {
      "type": "Feature",
      "properties": {
        "norad_id": 66838,
        "name": "STARLINK-35886",
        "group": "last-30-days",
        "lat": -33.778939419318135,
        "lon": 23.821175069463226,
        "alt_km": 366.99950810724476,
        "timestamp": "2025-12-15T22:44:27.661820+00:00",
        "meta_object_name": "STARLINK-35886",
        "meta_object_id": "2025-280T",
        "meta_epoch": "2025-12-15T06:00:04.999968",
        "meta_mean_motion": 15.71822479,
        "meta_eccentricity": 0.00032927,
        "meta_inclination": 69.9959,
        "meta_ra_of_asc_node": 191.6775,
        "meta_arg_of_pericenter": 270.7365,
        "meta_mean_anomaly": 323.8451,
        "meta_ephemeris_type": 0,
        "meta_classification_type": "U",
        "meta_norad_cat_id": 66838,
        "meta_element_set_no": 999,
        "meta_rev_at_epoch": 330,
        "meta_bstar": -0.018041198,
        "meta_mean_motion_dot": -0.02066003,
        "meta_mean_motion_ddot": 0,
        "tle_line1": "1 66838U 25280T   25349.25005787 -.02066003  00000+0 -18041-1 0  9998",
        "tle_line2": "2 66838  69.9959 191.6775 0003292 270.7365 323.8451 15.71822479  3300"
      },
      "geometry": {
        "type": "Point",
        "coordinates": [
          23.821175069463226,
          -33.778939419318135
        ]
      }
    },
    {
      "type": "Feature",
      "properties": {
        "norad_id": 66839,
        "name": "STARLINK-35717",
        "group": "last-30-days",
        "lat": -32.025767206367824,
        "lon": 22.890674926419326,
        "alt_km": 366.81341669222365,
        "timestamp": "2025-12-15T22:44:27.661830+00:00",
        "meta_object_name": "STARLINK-35717",
        "meta_object_id": "2025-280U",
        "meta_epoch": "2025-12-15T06:00:04.999968",
        "meta_mean_motion": 15.71834617,
        "meta_eccentricity": 0.00035611,
        "meta_inclination": 69.996,
        "meta_ra_of_asc_node": 191.6796,
        "meta_arg_of_pericenter": 269.4895,
        "meta_mean_anomaly": 323.1661,
        "meta_ephemeris_type": 0,
        "meta_classification_type": "U",
        "meta_norad_cat_id": 66839,
        "meta_element_set_no": 999,
        "meta_rev_at_epoch": 330,
        "meta_bstar": -0.018144922,
        "meta_mean_motion_dot": -0.02077672,
        "meta_mean_motion_ddot": 0,
        "tle_line1": "1 66839U 25280U   25349.25005787 -.02077672  00000+0 -18145-1 0  9998",
        "tle_line2": "2 66839  69.9960 191.6796 0003561 269.4895 323.1661 15.71834617  3301"
      },
      "geometry": {
        "type": "Point",
        "coordinates": [
          22.890674926419326,
          -32.025767206367824
        ]
      }
    }
  ]
}